GLOBALSTAR M035 [-]     
1 25851U 99037A   24093.92313152 -.00000099  00000+0 -13319-2 0  9991
2 25851  51.9969 316.7888 0013484 352.1328  22.9972 11.04529255 47610
GLOBALSTAR M032 [-]     
1 25852U 99037B   24093.87631664 -.00000083  00000+0 -52259-3 0  9997
2 25852  51.9933 172.4701 0010223 145.3379 214.8088 11.19050825 85495
GLOBALSTAR M051 [-]     
1 25853U 99037C   24093.77693344 -.00000060  00000+0  29475-3 0  9998
2 25853  51.9833  23.3157 0001581 129.7245 230.3705 11.42194904 82061
GLOBALSTAR M030 [-]     
1 25854U 99037D   24093.62044378 -.00000016  00000+0  12408-2 0  9998
2 25854  51.9863 217.8155 0003195 347.2554  12.8181 11.55088355 99230
GLOBALSTAR M048 [-]     
1 25872U 99041A   24093.84576207 -.00000038  00000+0  86238-3 0  9995
2 25872  51.9372 301.1616 0013924 139.7654 235.6172 11.33844735 75035
GLOBALSTAR M026 [-]     
1 25873U 99041B   24093.72980457 -.00000031  00000+0  12239-2 0  9991
2 25873  52.0000  79.8100 0001153 235.2886 295.7927 11.06836426 99717
GLOBALSTAR M043 [-]     
1 25874U 99041C   24093.59259001 -.00000043  00000+0  75885-3 0  9991
2 25874  51.9436  31.8402 0012622 283.0662 247.7148 11.25676835 73258
GLOBALSTAR M028 [-]     
1 25875U 99041D   24093.60592000 -.00000085  00000+0  97364-4 0  9996
2 25875  51.9627  66.7631 0063220 194.4102 165.4956 12.50553013135057
